NOAA 15                 
1 25338U 98030A   23190.53445618  .00000212  00000+0  10624-3 0  9992
2 25338  98.6043 219.2078 0009234 245.5977 114.4240 14.26348583308448
DMSP 5D-3 F15 (USA 147) 
1 25991U 99067A   23190.54293417  .00000137  00000+0  91758-4 0  9991
2 25991  99.0697 194.2550 0010252 165.3522   0.5296 14.16757713218597
DMSP 5D-3 F16 (USA 172) 
1 28054U 03048A   23190.52636127  .00000052  00000+0  51358-4 0  9993
2 28054  99.0117 188.9404 0006441 310.3386 159.9183 14.13822335 17715
NOAA 18                 
1 28654U 05018A   23190.44308676  .00000181  00000+0  12093-3 0  9999
2 28654  98.9093 264.7255 0013399 320.2511  39.7678 14.12966137934719
METEOSAT-9 (MSG-2)      
1 28912U 05049B   23189.80170858  .00000119  00000+0  00000+0 0  9999
2 28912   6.8950  63.6168 0001925 162.1914  34.9725  1.00273359 64306
EWS-G1 (GOES 13)        
1 29155U 06018A   23189.80485900  .00000031  00000+0  00000+0 0  9996
2 29155   1.5820  91.5672 0003594  87.2865  98.9122  1.00276128 62733
DMSP 5D-3 F17 (USA 191) 
1 29522U 06050A   23190.51838146  .00000050  00000+0  49178-4 0  9999
2 29522  98.7526 203.0754 0008928 235.9169 124.1157 14.14262202860618
FENGYUN 3A              
1 32958U 08026A   23190.49512321  .00000146  00000+0  90163-4 0  9998
2 32958  98.5559 143.5219 0008574 353.1053   7.0004 14.18886950783222
FENGYUN 2E              
1 33463U 08066A   23189.88814972 -.00000213  00000+0  00000+0 0  9994
2 33463   6.7687  62.8560 0000134 259.5314  10.5925  1.00276304 53327
NOAA 19                 
1 33591U 09005A   23190.49039451  .00000193  00000+0  12848-3 0  9993
2 33591  99.0981 236.7723 0014015 175.9448 184.1839 14.12783117743090
GOES 14                 
1 35491U 09033A   23190.54545427 -.00000069  00000+0  00000+0 0  9992
2 35491   0.3891 103.5609 0005520 338.9929 292.3974  1.00271615 51391
DMSP 5D-3 F18 (USA 210) 
1 35951U 09057A   23190.49640804  .00000282  00000+0  17182-3 0  9997
2 35951  98.7680 166.4194 0012328  67.2510 292.9964 14.13795281707793
GOES 15                 
1 36411U 10008A   23190.56118661  .00000020  00000+0  00000+0 0  9993
2 36411   0.4122  95.5664 0001250  63.8212 152.8229  0.99985278 48885
COMS 1                  
1 36744U 10032A   23190.51534775 -.00000349  00000+0  00000+0 0  9997
2 36744   2.0564  88.4839 0000872  24.1267 128.2248  1.00271952 47883
FENGYUN 3B              
1 37214U 10059A   23190.50399831  .00000069  00000+0  60176-4 0  9993
2 37214  99.0828 208.2505 0021918 346.0953 170.0335 14.14353761655660
SUOMI NPP               
1 37849U 11061A   23190.52508654  .00000100  00000+0  67945-4 0  9995
2 37849  98.7046 128.8638 0001073 107.0784  12.3082 14.19544687606109
FENGYUN 2F              
1 38049U 12002A   23190.15233910 -.00000363  00000+0  00000+0 0  9999
2 38049   4.7414  76.4910 0004468  86.5796 290.4799  1.00262149 42120
METEOSAT-10 (MSG-3)     
1 38552U 12035B   23190.07922087 -.00000016  00000+0  00000+0 0  9990
2 38552   2.2182  56.2491 0000497  21.8999 236.6238  1.00270903 40449
METOP-B                 
1 38771U 12049A   23190.48051257  .00000127  00000+0  78029-4 0  9998
2 38771  98.6773 249.4815 0001022  84.3828 337.2631 14.21508001560715
FENGYUN 3C              
1 39260U 13052A   23190.50045723  .00000093  00000+0  67995-4 0  9993
2 39260  98.4275 203.4362 0010010 235.1710 124.8524 14.16051748506686
METEOR-M 2              
1 40069U 14037A   23190.52455216  .00000112  00000+0  70907-4 0  9999
2 40069  98.4230 195.4617 0004427 280.3008  79.7670 14.20790945466821
HIMAWARI-8              
1 40267U 14060A   23190.19136451 -.00000280  00000+0  00000+0 0  9994
2 40267   0.0133 323.3834 0000988 164.8157   8.1898  1.00270016 32096
FENGYUN 2G              
1 40367U 14090A   23190.02747149 -.00000308  00000+0  00000+0 0  9993
2 40367   2.9111  85.4494 0001435  73.7195 236.9323  1.00277885 31263
METEOSAT-11 (MSG-4)     
1 40732U 15034A   23190.29622612  .00000059  00000+0  00000+0 0  9996
2 40732   0.6293  45.5293 0000540  48.7205 308.6868  1.00277167 29248
ELEKTRO-L 2             
1 41105U 15074A   23189.57470837 -.00000123  00000+0  00000+0 0  9997
2 41105   3.9630  83.6071 0001521  95.2077 299.8226  1.00271725 27741
HIMAWARI-9              
1 41836U 16064A   23190.68074309 -.00000279  00000+0  00000+0 0  9998
2 41836   0.0217  43.6406 0001180 118.7737 150.7675  1.00270557 24533
GOES 16                 
1 41866U 16071A   23190.49438493 -.00000252  00000+0  00000+0 0  9997
2 41866   0.0306 209.2240 0000391 327.5832 213.1194  1.00270307 24331
FENGYUN 4A              
1 41882U 16077A   23189.86357440 -.00000334  00000+0  00000+0 0  9993
2 41882   0.0498  48.2989 0003481 105.7378 188.0377  1.00267458 24208
CYGFM05                 
1 41884U 16078A   23189.76225939  .00005394  00000+0  24194-3 0  9996
2 41884  34.9555 309.6622 0014102 315.4896  44.4684 15.20477792363624
CYGFM04                 
1 41885U 16078B   23190.39075780  .00005279  00000+0  23217-3 0  9992
2 41885  34.9484 292.6320 0012296 341.2082  18.8176 15.21180392363841
CYGFM02                 
1 41886U 16078C   23189.97784768  .00005306  00000+0  23346-3 0  9992
2 41886  34.9579 297.5557 0013024 330.2467  29.7505 15.21154557363771
CYGFM01                 
1 41887U 16078D   23189.75108142  .00005209  00000+0  23524-3 0  9995
2 41887  34.9527 312.7926 0014496 314.2290  45.7232 15.20248101363587
CYGFM08                 
1 41888U 16078E   23189.67161987  .00005353  00000+0  23773-3 0  9999
2 41888  34.9493 303.9654 0013527 327.5923  32.3959 15.20827174363631
CYGFM07                 
1 41890U 16078G   23189.67917403  .00005816  00000+0  25506-3 0  9994
2 41890  34.9511 296.7365 0011909 332.6167  27.3917 15.21253703363733
CYGFM03                 
1 41891U 16078H   23189.62744017  .00005604  00000+0  24712-3 0  9992
2 41891  34.9545 297.8519 0011424 329.4443  30.5604 15.21082980363711
FENGYUN 3D              
1 43010U 17072A   23190.48415880  .00000098  00000+0  68298-4 0  9991
2 43010  98.8624 139.1233 0000627 194.0099 166.1059 14.19180094292666
NOAA 20                 
1 43013U 17073A   23190.46625452  .00000067  00000+0  52348-4 0  9996
2 43013  98.7126 128.5914 0001586  75.8569 284.2783 14.19543846292132
GOES 17                 
1 43226U 18022A   23190.54801081 -.00000094  00000+0  00000+0 0  9994
2 43226   0.0363 189.2421 0002246 284.6052 265.9194  1.00271067 19672
FENGYUN 2H              
1 43491U 18050A   23190.09499772 -.00000129  00000+0  00000+0 0  9998
2 43491   2.1336  90.8049 0003490  71.4111 237.6430  1.00267034 18747
METOP-C                 
1 43689U 18087A   23190.43492125  .00000125  00000+0  77246-4 0  9996
2 43689  98.6819 249.5844 0002870  24.2784 335.8528 14.21499155242286
GEO-KOMPSAT-2A          
1 43823U 18100A   23190.51700748 -.00000348  00000+0  00000+0 0  9991
2 43823   0.0411 160.5648 0002329 295.8729 145.1236  1.00271815 16897
METEOR-M2 2             
1 44387U 19038A   23190.51885003  .00000038  00000+0  36152-4 0  9993
2 44387  98.7766 154.3794 0000660 170.2913 189.8278 14.23790871208486
FENGYUN 3E              
1 49008U 21062A   23190.49447447 -.00000001  00000+0  20389-4 0  9997
2 49008  98.7215 191.5842 0000850 351.7054   8.4108 14.19686861104223
GOES 18                 
1 51850U 22021A   23190.53109090  .00000093  00000+0  00000+0 0  9998
2 51850   0.0212 206.1369 0000530 296.0463 199.2022  1.00272966  5037
NOAA 21 (JPSS-2)        
1 54234U 22150A   23190.48216791  .00000096  00000+0  66080-4 0  9999
2 54234  98.7166 128.0855 0001331  67.6504 292.4813 14.19560842 34211
METEOSAT-12             
1 54743U 22170C   23189.79194611 -.00000035  00000+0  00000+0 0  9993
2 54743   0.6732 310.3459 0002747 140.0305 117.8268  1.00272398  2198
METEOR-M2 3             
1 57166U 23091A   23190.84072108  .00088291  00000+0  38108-1 0  9993
2 57166  98.7613 242.6418 0004667  54.1612 305.9864 14.23843222  1760
